{"type": "FeatureCollection", "features": [ {"type": "Feature", "properties": {"norad_id": 66546, "name": "SHIJIAN-30B", "group": "last-30-days", "lat": 39.80700776941996, "lon": 23.024666565664795, "alt_km": 511.316556337345, "timestamp": "2025-12-10T18:56:58.833019+00:00", "meta": {"OBJECT_NAME": "SHIJIAN-30B", "OBJECT_ID": "2025-266B", "EPOCH": "2025-12-10T12:22:44.526432", "MEAN_MOTION": 15.15324418, "ECCENTRICITY": 0.0010395, "INCLINATION": 51.797, "RA_OF_ASC_NODE": 343.2869, "ARG_OF_PERICENTER": 351.0951, "MEAN_ANOMALY": 8.9839, "EPHEMERIS_TYPE": 0, "CLASSIFICATION_TYPE": "U", "NORAD_CAT_ID": 66546, "ELEMENT_SET_NO": 999, "REV_AT_EPOCH": 324, "BSTAR": 0.00081569, "MEAN_MOTION_DOT": 0.00015307, "MEAN_MOTION_DDOT": 0}, "tle": {"line1": "1 66546U 25266B   25344.51579313  .00015307  00000+0  81569-3 0  9997", "line2": "2 66546  51.7970 343.2869 0010395 351.0951   8.9839 15.15324418  3245"}}, "geometry": {"type": "Point", "coordinates": [23.024666565664795, 39.80700776941996]}}, {"type": "Feature", "properties": {"norad_id": 66547, "name": "SHIJIAN-30C", "group": "last-30-days", "lat": 38.189619937216804, "lon": 20.290872097514647, "alt_km": 511.6045392363594, "timestamp": "2025-12-10T18:56:58.833029+00:00", "meta": {"OBJECT_NAME": "SHIJIAN-30C", "OBJECT_ID": "2025-266C", "EPOCH": "2025-12-10T12:23:28.467744", "MEAN_MOTION": 15.15435792, "ECCENTRICITY": 0.0011375, "INCLINATION": 51.7978, "RA_OF_ASC_NODE": 343.2921, "ARG_OF_PERICENTER": 342.8969, "MEAN_ANOMALY": 17.1622, "EPHEMERIS_TYPE": 0, "CLASSIFICATION_TYPE": "U", "NORAD_CAT_ID": 66547, "ELEMENT_SET_NO": 999, "REV_AT_EPOCH": 324, "BSTAR": 0.00085347, "MEAN_MOTION_DOT": 0.00016087, "MEAN_MOTION_DDOT": 0}, "tle": {"line1": "1 66547U 25266C   25344.51630171  .00016087  00000+0  85347-3 0  9992", "line2": "2 66547  51.7978 343.2921 0011375 342.8969  17.1622 15.15435792  3249"}}, "geometry": {"type": "Point", "coordinates": [20.290872097514647, 38.189619937216804]}}, {"type": "Feature", "properties": {"norad_id": 66548, "name": "CZ-2C R/B", "group": "last-30-days", "lat": 52.028464523386994, "lon": 71.97812880366423, "alt_km": 453.48665920447456, "timestamp": "2025-12-10T18:56:58.833039+00:00", "meta": {"OBJECT_NAME": "CZ-2C R/B", "OBJECT_ID": "2025-266D", "EPOCH": "2025-12-10T10:42:49.644288", "MEAN_MOTION": 15.30100759, "ECCENTRICITY": 0.0084034, "INCLINATION": 52.0564, "RA_OF_ASC_NODE": 342.2049, "ARG_OF_PERICENTER": 165.1673, "MEAN_ANOMALY": 195.1807, "EPHEMERIS_TYPE": 0, "CLASSIFICATION_TYPE": "U", "NORAD_CAT_ID": 66548, "ELEMENT_SET_NO": 999, "REV_AT_EPOCH": 326, "BSTAR": 0.00045588, "MEAN_MOTION_DOT": 0.00014637, "MEAN_MOTION_DDOT": 0}, "tle": {"line1": "1 66548U 25266D   25344.44640792  .00014637  00000+0  45588-3 0  9997", "line2": "2 66548  52.0564 342.2049 0084034 165.1673 195.1807 15.30100759  3268"}}, "geometry": {"type": "Point", "coordinates": [71.97812880366423, 52.028464523386994]}}, {"type": "Feature", "properties": {"norad_id": 66549, "name": "SHIJIAN-28", "group": "last-30-days", "lat": 1.1603473101703248, "lon": -80.50976671194374, "alt_km": 35782.31055282289, "timestamp": "2025-12-10T18:56:58.833052+00:00", "meta": {"OBJECT_NAME": "SHIJIAN-28", "OBJECT_ID": "2025-277A", "EPOCH": "2025-12-01T04:36:42.476256", "MEAN_MOTION": 2.08595383, "ECCENTRICITY": 0.6308324, "INCLINATION": 11.5392, "RA_OF_ASC_NODE": 275.706, "ARG_OF_PERICENTER": 179.9335, "MEAN_ANOMALY": 180.3971, "EPHEMERIS_TYPE": 0, "CLASSIFICATION_TYPE": "U", "NORAD_CAT_ID": 66549, "ELEMENT_SET_NO": 999, "REV_AT_EPOCH": 5, "BSTAR": 0, "MEAN_MOTION_DOT": -3.3e-07, "MEAN_MOTION_DDOT": 0}, "tle": {"line1": "1 66549U 25277A   25335.19215829 -.00000033  00000+0  00000+0 0  9993", "line2": "2 66549  11.5392 275.7060 6308324 179.9335 180.3971  2.08595383    50"}}, "geometry": {"type": "Point", "coordinates": [-80.50976671194374, 1.1603473101703248]}}, {"type": "Feature", "properties": {"norad_id": 66550, "name": "CZ-7A R/B", "group": "last-30-days", "lat": 1.96411463593642, "lon": -81.43493226733924, "alt_km": 31363.043286161566, "timestamp": "2025-12-10T18:56:58.833071+00:00", "meta": {"OBJECT_NAME": "CZ-7A R/B", "OBJECT_ID": "2025-277B", "EPOCH": "2025-12-09T05:27:24.418944", "MEAN_MOTION": 2.57975656, "ECCENTRICITY": 0.71041719, "INCLINATION": 14.4001, "RA_OF_ASC_NODE": 271.6446, "ARG_OF_PERICENTER": 185.6905, "MEAN_ANOMALY": 156.7335, "EPHEMERIS_TYPE": 0, "CLASSIFICATION_TYPE": "U", "NORAD_CAT_ID": 66550, "ELEMENT_SET_NO": 999, "REV_AT_EPOCH": 25, "BSTAR": 0.0029500826, "MEAN_MOTION_DOT": 0.01805656, "MEAN_MOTION_DDOT": 5.50612e-07}, "tle": {"line1": "1 66550U 25277B   25343.22736596  .01805656  55061-6  29501-2 0  9995", "line2": "2 66550  14.4001 271.6446 7104171 185.6905 156.7335  2.57975656   258"}}, "geometry": {"type": "Point", "coordinates": [-81.43493226733924, 1.96411463593642]}}, {"type": "Feature", "properties": {"norad_id": 66551, "name": "UNKNOWN", "group": "last-30-days", "lat": -28.29551009307509, "lon": 40.45825629260098, "alt_km": 306.1885425549581, "timestamp": "2025-12-10T18:56:58.833082+00:00", "meta": {"OBJECT_NAME": "UNKNOWN", "OBJECT_ID": "2025-271AE", "EPOCH": "2025-12-02T16:00:03.000096", "MEAN_MOTION": 15.87051116, "ECCENTRICITY": 7.17e-05, "INCLINATION": 53.1571, "RA_OF_ASC_NODE": 236.7807, "ARG_OF_PERICENTER": 110.7411, "MEAN_ANOMALY": 313.9012, "EPHEMERIS_TYPE": 0, "CLASSIFICATION_TYPE": "U", "NORAD_CAT_ID": 66551, "ELEMENT_SET_NO": 999, "REV_AT_EPOCH": 262, "BSTAR": -0.0074303, "MEAN_MOTION_DOT": -0.01709685, "MEAN_MOTION_DDOT": 0}, "tle": {"line1": "1 66551U 25271AE  25336.66670139 -.01709685  00000+0 -74303-2 0  9993", "line2": "2 66551  53.1571 236.7807 0000717 110.7411 313.9012 15.87051116  2624"}}, "geometry": {"type": "Point", "coordinates": [40.45825629260098, -28.29551009307509]}}, {"type": "Feature", "properties": {"norad_id": 66554, "name": "GLOBAL-33", "group": "last-30-days", "lat": 41.86576676726385, "lon": 163.82016097694935, "alt_km": 462.5510495799517, "timestamp": "2025-12-10T18:56:58.833092+00:00", "meta": {"OBJECT_NAME": "GLOBAL-33", "OBJECT_ID": "2025-267A", "EPOCH": "2025-12-10T06:01:13.647360", "MEAN_MOTION": 15.31559914, "ECCENTRICITY": 0.00045942, "INCLINATION": 42.0206, "RA_OF_ASC_NODE": 71.3617, "ARG_OF_PERICENTER": 35.1898, "MEAN_ANOMALY": 324.9242, "EPHEMERIS_TYPE": 0, "CLASSIFICATION_TYPE": "U", "NORAD_CAT_ID": 66554, "ELEMENT_SET_NO": 999, "REV_AT_EPOCH": 302, "BSTAR": 0.00062804932, "MEAN_MOTION_DOT": 0.00019358, "MEAN_MOTION_DDOT": 0}, "tle": {"line1": "1 66554U 25267A   25344.25085240  .00019358  00000+0  62805-3 0  9991", "line2": "2 66554  42.0206  71.3617 0004594  35.1898 324.9242 15.31559914  3027"}}, "geometry": {"type": "Point", "coordinates": [163.82016097694935, 41.86576676726385]}}, {"type": "Feature", "properties": {"norad_id": 66555, "name": "ELECTRON KICK STAGE R/B", "group": "last-30-days", "lat": 18.58106507764016, "lon": -133.810781363847, "alt_km": 466.7298973531233, "timestamp": "2025-12-10T18:56:58.833104+00:00", "meta": {"OBJECT_NAME": "ELECTRON KICK STAGE R/B", "OBJECT_ID": "2025-267B", "EPOCH": "2025-12-10T07:20:40.150464", "MEAN_MOTION": 15.32621473, "ECCENTRICITY": 0.00066801, "INCLINATION": 42.0194, "RA_OF_ASC_NODE": 70.9094, "ARG_OF_PERICENTER": 33.8132, "MEAN_ANOMALY": 326.313, "EPHEMERIS_TYPE": 0, "CLASSIFICATION_TYPE": "U", "NORAD_CAT_ID": 66555, "ELEMENT_SET_NO": 999, "REV_AT_EPOCH": 303, "BSTAR": 0.0011399935, "MEAN_MOTION_DOT": 0.00036645, "MEAN_MOTION_DDOT": 0}, "tle": {"line1": "1 66555U 25267B   25344.30602026  .00036645  00000+0  11400-2 0  9997", "line2": "2 66555  42.0194  70.9094 0006680  33.8132 326.3130 15.32621473  3036"}}, "geometry": {"type": "Point", "coordinates": [-133.810781363847, 18.58106507764016]}}, {"type": "Feature", "properties": {"norad_id": 66557, "name": "STARLINK-35699", "group": "last-30-days", "lat": -0.290706834334661, "lon": 132.2918588557078, "alt_km": 414.9614882078149, "timestamp": "2025-12-10T18:56:58.833115+00:00", "meta": {"OBJECT_NAME": "STARLINK-35699", "OBJECT_ID": "2025-268A", "EPOCH": "2025-12-10T12:00:02.998944", "MEAN_MOTION": 15.50619898, "ECCENTRICITY": 0.0001257, "INCLINATION": 43.0004, "RA_OF_ASC_NODE": 134.2978, "ARG_OF_PERICENTER": 264.5996, "MEAN_ANOMALY": 276.8897, "EPHEMERIS_TYPE": 0, "CLASSIFICATION_TYPE": "U", "NORAD_CAT_ID": 66557, "ELEMENT_SET_NO": 999, "REV_AT_EPOCH": 430, "BSTAR": -0.0018931, "MEAN_MOTION_DOT": -0.00110014, "MEAN_MOTION_DDOT": 0}, "tle": {"line1": "1 66557U 25268A   25344.50003471 -.00110014  00000+0 -18931-2 0  9992", "line2": "2 66557  43.0004 134.2978 0001257 264.5996 276.8897 15.50619898  4308"}}, "geometry": {"type": "Point", "coordinates": [132.2918588557078, -0.290706834334661]}}, {"type": "Feature", "properties": {"norad_id": 66558, "name": "STARLINK-35695", "group": "last-30-days", "lat": 0.9907567069657199, "lon": 133.66298861981954, "alt_km": 414.8659969298533, "timestamp": "2025-12-10T18:56:58.833127+00:00", "meta": {"OBJECT_NAME": "STARLINK-35695", "OBJECT_ID": "2025-268B", "EPOCH": "2025-12-10T12:00:02.998944", "MEAN_MOTION": 15.50539696, "ECCENTRICITY": 0.0001944, "INCLINATION": 43.0003, "RA_OF_ASC_NODE": 134.2935, "ARG_OF_PERICENTER": 263.2758, "MEAN_ANOMALY": 280.1233, "EPHEMERIS_TYPE": 0, "CLASSIFICATION_TYPE": "U", "NORAD_CAT_ID": 66558, "ELEMENT_SET_NO": 999, "REV_AT_EPOCH": 430, "BSTAR": 0.00071374, "MEAN_MOTION_DOT": 0.00041695, "MEAN_MOTION_DDOT": 0}, "tle": {"line1": "1 66558U 25268B   25344.50003471  .00041695  00000+0  71374-3 0  9990", "line2": "2 66558  43.0003 134.2935 0001944 263.2758 280.1233 15.50539696  4305"}}, "geometry": {"type": "Point", "coordinates": [133.66298861981954, 0.9907567069657199]}}]}